{
  "type": "FeatureCollection",
  "features": [
    {
      "type": "Feature",
      "properties": {
        "norad_id": 66849,
        "name": "STARLINK-36102",
        "group": "last-30-days",
        "lat": -42.22401608970251,
        "lon": -64.54600256273393,
        "alt_km": 417.6825325575146,
        "timestamp": "2025-12-26T14:28:46.396595+00:00",
        "meta_object_name": "STARLINK-36102",
        "meta_object_id": "2025-281B",
        "meta_epoch": "2025-12-26T06:00:02.999808",
        "meta_mean_motion": 15.50541845,
        "meta_eccentricity": 0.00010855,
        "meta_inclination": 43.0004,
        "meta_ra_of_asc_node": 40.6484,
        "meta_arg_of_pericenter": 247.616,
        "meta_mean_anomaly": 198.3121,
        "meta_ephemeris_type": 0,
        "meta_classification_type": "U",
        "meta_norad_cat_id": 66849,
        "meta_element_set_no": 999,
        "meta_rev_at_epoch": 355,
        "meta_bstar": 0.00062828516,
        "meta_mean_motion_dot": 0.0003664,
        "meta_mean_motion_ddot": 0,
        "tle_line1": "1 66849U 25281B   25360.25003472  .00036640  00000+0  62829-3 0  9998",
        "tle_line2": "2 66849  43.0004  40.6484 0001085 247.6160 198.3121 15.50541845  3558"
      },
      "geometry": {
        "type": "Point",
        "coordinates": [
          -64.54600256273393,
          -42.22401608970251
        ]
      }
    },
    {
      "type": "Feature",
      "properties": {
        "norad_id": 66850,
        "name": "STARLINK-36105",
        "group": "last-30-days",
        "lat": -42.48937337911659,
        "lon": -62.01061722431213,
        "alt_km": 417.7729295869967,
        "timestamp": "2025-12-26T14:28:46.396605+00:00",
        "meta_object_name": "STARLINK-36105",
        "meta_object_id": "2025-281C",
        "meta_epoch": "2025-12-26T06:00:02.999808",
        "meta_mean_motion": 15.50534997,
        "meta_eccentricity": 9.892e-05,
        "meta_inclination": 43.0002,
        "meta_ra_of_asc_node": 40.6438,
        "meta_arg_of_pericenter": 249.527,
        "meta_mean_anomaly": 198.3073,
        "meta_ephemeris_type": 0,
        "meta_classification_type": "U",
        "meta_norad_cat_id": 66850,
        "meta_element_set_no": 999,
        "meta_rev_at_epoch": 355,
        "meta_bstar": 0.00067345162,
        "meta_mean_motion_dot": 0.00039303,
        "meta_mean_motion_ddot": 0,
        "tle_line1": "1 66850U 25281C   25360.25003472  .00039303  00000+0  67345-3 0  9997",
        "tle_line2": "2 66850  43.0002  40.6438 0000989 249.5270 198.3073 15.50534997  3558"
      },
      "geometry": {
        "type": "Point",
        "coordinates": [
          -62.01061722431213,
          -42.48937337911659
        ]
      }
    },
    {
      "type": "Feature",
      "properties": {
        "norad_id": 66851,
        "name": "STARLINK-36094",
        "group": "last-30-days",
        "lat": -42.694339817265714,
        "lon": -59.51308011455963,
        "alt_km": 417.73487471639237,
        "timestamp": "2025-12-26T14:28:46.396615+00:00",
        "meta_object_name": "STARLINK-36094",
        "meta_object_id": "2025-281D",
        "meta_epoch": "2025-12-26T06:00:02.999808",
        "meta_mean_motion": 15.50517952,
        "meta_eccentricity": 0.00011714,
        "meta_inclination": 43.0002,
        "meta_ra_of_asc_node": 40.6396,
        "meta_arg_of_pericenter": 233.1233,
        "meta_mean_anomaly": 216.5718,
        "meta_ephemeris_type": 0,
        "meta_classification_type": "U",
        "meta_norad_cat_id": 66851,
        "meta_element_set_no": 999,
        "meta_rev_at_epoch": 355,
        "meta_bstar": 0.0011569969,
        "meta_mean_motion_dot": 0.00067977,
        "meta_mean_motion_ddot": 0,
        "tle_line1": "1 66851U 25281D   25360.25003472  .00067977  00000+0  11570-2 0  9994",
        "tle_line2": "2 66851  43.0002  40.6396 0001171 233.1233 216.5718 15.50517952  3555"
      },
      "geometry": {
        "type": "Point",
        "coordinates": [
          -59.51308011455963,
          -42.694339817265714
        ]
      }
    },
    {
      "type": "Feature",
      "properties": {
        "norad_id": 66852,
        "name": "STARLINK-35992",
        "group": "last-30-days",
        "lat": -42.84768309103356,
        "lon": -56.938718246918434,
        "alt_km": 418.2547686613934,
        "timestamp": "2025-12-26T14:28:46.396628+00:00",
        "meta_object_name": "STARLINK-35992",
        "meta_object_id": "2025-281E",
        "meta_epoch": "2025-12-26T06:00:02.999808",
        "meta_mean_motion": 15.50506511,
        "meta_eccentricity": 3.852e-05,
        "meta_inclination": 43.0003,
        "meta_ra_of_asc_node": 40.6349,
        "meta_arg_of_pericenter": 292.5574,
        "meta_mean_anomaly": 159.066,
        "meta_ephemeris_type": 0,
        "meta_classification_type": "U",
        "meta_norad_cat_id": 66852,
        "meta_element_set_no": 999,
        "meta_rev_at_epoch": 355,
        "meta_bstar": 0.0010439187,
        "meta_mean_motion_dot": 0.00061221,
        "meta_mean_motion_ddot": 0,
        "tle_line1": "1 66852U 25281E   25360.25003472  .00061221  00000+0  10439-2 0  9994",
        "tle_line2": "2 66852  43.0003  40.6349 0000385 292.5574 159.0660 15.50506511  3554"
      },
      "geometry": {
        "type": "Point",
        "coordinates": [
          -56.938718246918434,
          -42.84768309103356
        ]
      }
    },
    {
      "type": "Feature",
      "properties": {
        "norad_id": 66853,
        "name": "STARLINK-35986",
        "group": "last-30-days",
        "lat": -42.94326304278482,
        "lon": -54.33636982731352,
        "alt_km": 418.26712218128614,
        "timestamp": "2025-12-26T14:28:46.396654+00:00",
        "meta_object_name": "STARLINK-35986",
        "meta_object_id": "2025-281F",
        "meta_epoch": "2025-12-26T06:00:02.999808",
        "meta_mean_motion": 15.50508279,
        "meta_eccentricity": 3.975e-05,
        "meta_inclination": 43.0003,
        "meta_ra_of_asc_node": 40.6294,
        "meta_arg_of_pericenter": 302.3078,
        "meta_mean_anomaly": 151.2302,
        "meta_ephemeris_type": 0,
        "meta_classification_type": "U",
        "meta_norad_cat_id": 66853,
        "meta_element_set_no": 999,
        "meta_rev_at_epoch": 355,
        "meta_bstar": 0.0010299672,
        "meta_mean_motion_dot": 0.00060396,
        "meta_mean_motion_ddot": 0,
        "tle_line1": "1 66853U 25281F   25360.25003472  .00060396  00000+0  10300-2 0  9994",
        "tle_line2": "2 66853  43.0003  40.6294 0000397 302.3078 151.2302 15.50508279  3556"
      },
      "geometry": {
        "type": "Point",
        "coordinates": [
          -54.33636982731352,
          -42.94326304278482
        ]
      }
    },
    {
      "type": "Feature",
      "properties": {
        "norad_id": 66854,
        "name": "STARLINK-36087",
        "group": "last-30-days",
        "lat": -42.97941762295372,
        "lon": -51.72137320309721,
        "alt_km": 418.23982328171405,
        "timestamp": "2025-12-26T14:28:46.396665+00:00",
        "meta_object_name": "STARLINK-36087",
        "meta_object_id": "2025-281G",
        "meta_epoch": "2025-12-26T06:00:02.999808",
        "meta_mean_motion": 15.5050801,
        "meta_eccentricity": 4.201e-05,
        "meta_inclination": 43.0002,
        "meta_ra_of_asc_node": 40.6245,
        "meta_arg_of_pericenter": 296.871,
        "meta_mean_anomaly": 158.5881,
        "meta_ephemeris_type": 0,
        "meta_classification_type": "U",
        "meta_norad_cat_id": 66854,
        "meta_element_set_no": 999,
        "meta_rev_at_epoch": 355,
        "meta_bstar": 0.0010110419,
        "meta_mean_motion_dot": 0.0005927,
        "meta_mean_motion_ddot": 0,
        "tle_line1": "1 66854U 25281G   25360.25003472  .00059270  00000+0  10110-2 0  9993",
        "tle_line2": "2 66854  43.0002  40.6245 0000420 296.8710 158.5881 15.50508010  3554"
      },
      "geometry": {
        "type": "Point",
        "coordinates": [
          -51.72137320309721,
          -42.97941762295372
        ]
      }
    },
    {
      "type": "Feature",
      "properties": {
        "norad_id": 66855,
        "name": "STARLINK-36090",
        "group": "last-30-days",
        "lat": -42.95571940337247,
        "lon": -49.106695317532015,
        "alt_km": 418.16076137488926,
        "timestamp": "2025-12-26T14:28:46.396675+00:00",
        "meta_object_name": "STARLINK-36090",
        "meta_object_id": "2025-281H",
        "meta_epoch": "2025-12-26T06:00:02.999808",
        "meta_mean_motion": 15.50510705,
        "meta_eccentricity": 5.882e-05,
        "meta_inclination": 43,
        "meta_ra_of_asc_node": 40.6201,
        "meta_arg_of_pericenter": 300.7984,
        "meta_mean_anomaly": 156.5829,
        "meta_ephemeris_type": 0,
        "meta_classification_type": "U",
        "meta_norad_cat_id": 66855,
        "meta_element_set_no": 999,
        "meta_rev_at_epoch": 343,
        "meta_bstar": 0.00082649987,
        "meta_mean_motion_dot": 0.00048326,
        "meta_mean_motion_ddot": 0,
        "tle_line1": "1 66855U 25281H   25360.25003472  .00048326  00000+0  82650-3 0  9993",
        "tle_line2": "2 66855  43.0000  40.6201 0000588 300.7984 156.5829 15.50510705  3439"
      },
      "geometry": {
        "type": "Point",
        "coordinates": [
          -49.106695317532015,
          -42.95571940337247
        ]
      }
    }
  ]
}